CCSDS_OMM_VERS = 2.0
CREATION_DATE  = 
ORIGINATOR     = 

OBJECT_NAME    = STARLINK-35404
OBJECT_ID      = 2025-253T
CENTER_NAME    = EARTH
REF_FRAME      = TEME
TIME_SYSTEM    = UTC
MEAN_ELEMENT_THEORY = SGP/SGP4

EPOCH          = 2025-11-24T12:00:02.000160
MEAN_MOTION    = 15.62207284
ECCENTRICITY   = .0001313
INCLINATION    = 42.9997
RA_OF_ASC_NODE = 91.4669
ARG_OF_PERICENTER = 271.9113
MEAN_ANOMALY   = 338.2483

EPHEMERIS_TYPE = 0
CLASSIFICATION_TYPE = U
NORAD_CAT_ID   = 66336
ELEMENT_SET_NO = 999
REV_AT_EPOCH   = 409
BSTAR          = -.25605E-1
MEAN_MOTION_DOT = -.2030751E-1
MEAN_MOTION_DDOT = 0

CCSDS_OMM_VERS = 2.0
CREATION_DATE  = 
ORIGINATOR     = 

OBJECT_NAME    = STARLINK-34783
OBJECT_ID      = 2025-253U
CENTER_NAME    = EARTH
REF_FRAME      = TEME
TIME_SYSTEM    = UTC
MEAN_ELEMENT_THEORY = SGP/SGP4

EPOCH          = 2025-11-24T12:00:02.000160
MEAN_MOTION    = 15.62212993
ECCENTRICITY   = .0001204
INCLINATION    = 42.9997
RA_OF_ASC_NODE = 91.4477
ARG_OF_PERICENTER = 266.7665
MEAN_ANOMALY   = 351.0571

EPHEMERIS_TYPE = 0
CLASSIFICATION_TYPE = U
NORAD_CAT_ID   = 66337
ELEMENT_SET_NO = 999
REV_AT_EPOCH   = 404
BSTAR          = -.25704E-1
MEAN_MOTION_DOT = -.2037944E-1
MEAN_MOTION_DDOT = 0

CCSDS_OMM_VERS = 2.0
CREATION_DATE  = 
ORIGINATOR     = 

OBJECT_NAME    = STARLINK-35477
OBJECT_ID      = 2025-253V
CENTER_NAME    = EARTH
REF_FRAME      = TEME
TIME_SYSTEM    = UTC
MEAN_ELEMENT_THEORY = SGP/SGP4

EPOCH          = 2025-11-24T12:00:02.000160
MEAN_MOTION    = 15.62208984
ECCENTRICITY   = .0001339
INCLINATION    = 42.9996
RA_OF_ASC_NODE = 91.4577
ARG_OF_PERICENTER = 270.9594
MEAN_ANOMALY   = 343.0318

EPHEMERIS_TYPE = 0
CLASSIFICATION_TYPE = U
NORAD_CAT_ID   = 66338
ELEMENT_SET_NO = 999
REV_AT_EPOCH   = 409
BSTAR          = -.25606E-1
MEAN_MOTION_DOT = -.2031005E-1
MEAN_MOTION_DDOT = 0

CCSDS_OMM_VERS = 2.0
CREATION_DATE  = 
ORIGINATOR     = 

OBJECT_NAME    = STARLINK-35443
OBJECT_ID      = 2025-253W
CENTER_NAME    = EARTH
REF_FRAME      = TEME
TIME_SYSTEM    = UTC
MEAN_ELEMENT_THEORY = SGP/SGP4

EPOCH          = 2025-11-24T12:00:02.000160
MEAN_MOTION    = 15.62213145
ECCENTRICITY   = .0001283
INCLINATION    = 42.9997
RA_OF_ASC_NODE = 91.4323
ARG_OF_PERICENTER = 268.2066
MEAN_ANOMALY   = 355.3708

EPHEMERIS_TYPE = 0
CLASSIFICATION_TYPE = U
NORAD_CAT_ID   = 66339
ELEMENT_SET_NO = 999
REV_AT_EPOCH   = 404
BSTAR          = -.25756E-1
MEAN_MOTION_DOT = -.2041624E-1
MEAN_MOTION_DDOT = 0

CCSDS_OMM_VERS = 2.0
CREATION_DATE  = 
ORIGINATOR     = 

OBJECT_NAME    = STARLINK-35218
OBJECT_ID      = 2025-253X
CENTER_NAME    = EARTH
REF_FRAME      = TEME
TIME_SYSTEM    = UTC
MEAN_ELEMENT_THEORY = SGP/SGP4

EPOCH          = 2025-11-24T12:00:02.000160
MEAN_MOTION    = 15.62206344
ECCENTRICITY   = .000135
INCLINATION    = 42.9998
RA_OF_ASC_NODE = 91.4615
ARG_OF_PERICENTER = 272.2940
MEAN_ANOMALY   = 339.7815

EPHEMERIS_TYPE = 0
CLASSIFICATION_TYPE = U
NORAD_CAT_ID   = 66340
ELEMENT_SET_NO = 999
REV_AT_EPOCH   = 409
BSTAR          = -.2556E-1
MEAN_MOTION_DOT = -.2027627E-1
MEAN_MOTION_DDOT = 0

CCSDS_OMM_VERS = 2.0
CREATION_DATE  = 
ORIGINATOR     = 

OBJECT_NAME    = STARLINK-35522
OBJECT_ID      = 2025-253Y
CENTER_NAME    = EARTH
REF_FRAME      = TEME
TIME_SYSTEM    = UTC
MEAN_ELEMENT_THEORY = SGP/SGP4

EPOCH          = 2025-11-24T12:00:02.000160
MEAN_MOTION    = 15.62205859
ECCENTRICITY   = .0001376
INCLINATION    = 42.9996
RA_OF_ASC_NODE = 91.4827
ARG_OF_PERICENTER = 267.6735
MEAN_ANOMALY   = 336.7335

EPHEMERIS_TYPE = 0
CLASSIFICATION_TYPE = U
NORAD_CAT_ID   = 66341
ELEMENT_SET_NO = 999
REV_AT_EPOCH   = 409
BSTAR          = -.25553E-1
MEAN_MOTION_DOT = -.2027134E-1
MEAN_MOTION_DDOT = 0

CCSDS_OMM_VERS = 2.0
CREATION_DATE  = 
ORIGINATOR     = 

OBJECT_NAME    = STARLINK-35535
OBJECT_ID      = 2025-253Z
CENTER_NAME    = EARTH
REF_FRAME      = TEME
TIME_SYSTEM    = UTC
MEAN_ELEMENT_THEORY = SGP/SGP4

EPOCH          = 2025-11-24T12:00:02.000160
MEAN_MOTION    = 15.62210328
ECCENTRICITY   = .0001317
INCLINATION    = 42.9995
RA_OF_ASC_NODE = 91.4371
ARG_OF_PERICENTER = 266.7420
MEAN_ANOMALY   = 354.9188

EPHEMERIS_TYPE = 0
CLASSIFICATION_TYPE = U
NORAD_CAT_ID   = 66342
ELEMENT_SET_NO = 999
REV_AT_EPOCH   = 399
BSTAR          = -.25692E-1
MEAN_MOTION_DOT = -.203702E-1
MEAN_MOTION_DDOT = 0

CCSDS_OMM_VERS = 2.0
CREATION_DATE  = 
ORIGINATOR     = 

OBJECT_NAME    = STARLINK-35467
OBJECT_ID      = 2025-253AA
CENTER_NAME    = EARTH
REF_FRAME      = TEME
TIME_SYSTEM    = UTC
MEAN_ELEMENT_THEORY = SGP/SGP4

EPOCH          = 2025-11-24T12:00:02.000160
MEAN_MOTION    = 15.62212745
ECCENTRICITY   = .0001265
INCLINATION    = 42.9996
RA_OF_ASC_NODE = 91.4416
ARG_OF_PERICENTER = 266.9612
MEAN_ANOMALY   = 352.7834

EPHEMERIS_TYPE = 0
CLASSIFICATION_TYPE = U
NORAD_CAT_ID   = 66343
ELEMENT_SET_NO = 999
REV_AT_EPOCH   = 399
BSTAR          = -.25755E-1
MEAN_MOTION_DOT = -.2041507E-1
MEAN_MOTION_DDOT = 0

CCSDS_OMM_VERS = 2.0
CREATION_DATE  = 
ORIGINATOR     = 

OBJECT_NAME    = STARLINK-35511
OBJECT_ID      = 2025-253AB
CENTER_NAME    = EARTH
REF_FRAME      = TEME
TIME_SYSTEM    = UTC
MEAN_ELEMENT_THEORY = SGP/SGP4

EPOCH          = 2025-11-24T12:00:02.000160
MEAN_MOTION    = 15.62219687
ECCENTRICITY   = .0001384
INCLINATION    = 42.9995
RA_OF_ASC_NODE = 91.4180
ARG_OF_PERICENTER = 270.7772
MEAN_ANOMALY   = 358.5485

EPHEMERIS_TYPE = 0
CLASSIFICATION_TYPE = U
NORAD_CAT_ID   = 66344
ELEMENT_SET_NO = 999
REV_AT_EPOCH   = 399
BSTAR          = -.25873E-1
MEAN_MOTION_DOT = -.2050274E-1
MEAN_MOTION_DDOT = 0

CCSDS_OMM_VERS = 2.0
CREATION_DATE  = 
ORIGINATOR     = 

OBJECT_NAME    = STARLINK-35440
OBJECT_ID      = 2025-253AC
CENTER_NAME    = EARTH
REF_FRAME      = TEME
TIME_SYSTEM    = UTC
MEAN_ELEMENT_THEORY = SGP/SGP4

EPOCH          = 2025-11-24T12:00:02.000160
MEAN_MOTION    = 15.62210966
ECCENTRICITY   = .0001322
INCLINATION    = 42.9996
RA_OF_ASC_NODE = 91.4255
ARG_OF_PERICENTER = 265.9606
MEAN_ANOMALY   = 359.5337

EPHEMERIS_TYPE = 0
CLASSIFICATION_TYPE = U
NORAD_CAT_ID   = 66345
ELEMENT_SET_NO = 999
REV_AT_EPOCH   = 399
BSTAR          = -.25688E-1
MEAN_MOTION_DOT = -.2036803E-1
MEAN_MOTION_DDOT = 0

CCSDS_OMM_VERS = 2.0
CREATION_DATE  = 
ORIGINATOR     = 

OBJECT_NAME    = STARLINK-35482
OBJECT_ID      = 2025-253AD
CENTER_NAME    = EARTH
REF_FRAME      = TEME
TIME_SYSTEM    = UTC
MEAN_ELEMENT_THEORY = SGP/SGP4

EPOCH          = 2025-11-24T12:00:02.000160
MEAN_MOTION    = 15.62211254
ECCENTRICITY   = .0001333
INCLINATION    = 42.9995
RA_OF_ASC_NODE = 91.4218
ARG_OF_PERICENTER = 270.8142
MEAN_ANOMALY   = 356.5985

EPHEMERIS_TYPE = 0
CLASSIFICATION_TYPE = U
NORAD_CAT_ID   = 66346
ELEMENT_SET_NO = 999
REV_AT_EPOCH   = 409
BSTAR          = -.2574E-1
MEAN_MOTION_DOT = -.2040421E-1
MEAN_MOTION_DDOT = 0

CCSDS_OMM_VERS = 2.0
CREATION_DATE  = 
ORIGINATOR     = 

OBJECT_NAME    = STARLINK-35438
OBJECT_ID      = 2025-253AE
CENTER_NAME    = EARTH
REF_FRAME      = TEME
TIME_SYSTEM    = UTC
MEAN_ELEMENT_THEORY = SGP/SGP4

EPOCH          = 2025-11-24T12:00:02.000160
MEAN_MOTION    = 15.62211288
ECCENTRICITY   = .0001356
INCLINATION    = 42.9995
RA_OF_ASC_NODE = 91.4118
ARG_OF_PERICENTER = 270.7539
MEAN_ANOMALY   = 0.4934

EPHEMERIS_TYPE = 0
CLASSIFICATION_TYPE = U
NORAD_CAT_ID   = 66347
ELEMENT_SET_NO = 999
REV_AT_EPOCH   = 399
BSTAR          = -.25727E-1
MEAN_MOTION_DOT = -.2039532E-1
MEAN_MOTION_DDOT = 0

