STARLINK-35404          
1 66336U 25253T   25328.50002315 -.02030751  00000+0 -25605-1 0  9995
2 66336  42.9997  91.4669 0001313 271.9113 338.2483 15.62207284  4094
STARLINK-34783          
1 66337U 25253U   25328.50002315 -.02037944  00000+0 -25704-1 0  9997
2 66337  42.9997  91.4477 0001204 266.7665 351.0571 15.62212993  4044
STARLINK-35477          
1 66338U 25253V   25328.50002315 -.02031005  00000+0 -25606-1 0  9991
2 66338  42.9996  91.4577 0001339 270.9594 343.0318 15.62208984  4092
STARLINK-35443          
1 66339U 25253W   25328.50002315 -.02041624  00000+0 -25756-1 0  9996
2 66339  42.9997  91.4323 0001283 268.2066 355.3708 15.62213145  4044
STARLINK-35218          
1 66340U 25253X   25328.50002315 -.02027627  00000+0 -25560-1 0  9998
2 66340  42.9998  91.4615 0001350 272.2940 339.7815 15.62206344  4095
STARLINK-35522          
1 66341U 25253Y   25328.50002315 -.02027134  00000+0 -25553-1 0  9994
2 66341  42.9996  91.4827 0001376 267.6735 336.7335 15.62205859  4091
STARLINK-35535          
1 66342U 25253Z   25328.50002315 -.02037020  00000+0 -25692-1 0  9994
2 66342  42.9995  91.4371 0001317 266.7420 354.9188 15.62210328  3994
STARLINK-35467          
1 66343U 25253AA  25328.50002315 -.02041507  00000+0 -25755-1 0  9990
2 66343  42.9996  91.4416 0001265 266.9612 352.7834 15.62212745  3992
STARLINK-35511          
1 66344U 25253AB  25328.50002315 -.02050274  00000+0 -25873-1 0  9993
2 66344  42.9995  91.4180 0001384 270.7772 358.5485 15.62219687  3990
STARLINK-35440          
1 66345U 25253AC  25328.50002315 -.02036803  00000+0 -25688-1 0  9990
2 66345  42.9996  91.4255 0001322 265.9606 359.5337 15.62210966  3997
STARLINK-35482          
1 66346U 25253AD  25328.50002315 -.02040421  00000+0 -25740-1 0  9991
2 66346  42.9995  91.4218 0001333 270.8142 356.5985 15.62211254  4097
STARLINK-35438          
1 66347U 25253AE  25328.50002315 -.02039532  00000+0 -25727-1 0  9998
2 66347  42.9995  91.4118 0001356 270.7539   0.4934 15.62211288  3995
